FLOCK 4BE-7             
1 60481U 24149P   26201.98428823  .00019264  00000+0  45877-3 0  9999
2 60481  97.3744 285.3725 0004512 134.5172 225.6444 15.41637084107455
TOMORROW-S2             
1 60485U 24149T   26201.78314828  .00004746  00000+0  15047-3 0  9995
2 60485  97.3805 282.6795 0004231 135.2941 224.8643 15.33189329107237
FLOCK 4BE-36            
1 60486U 24149U   26202.15923140  .00013387  00000+0  29871-3 0  9992
2 60486  97.3730 287.0169 0005137 136.3533 223.8122 15.43669412107591
FLOCK 4BE-25            
1 60487U 24149V   26202.15213282  .00010231  00000+0  26144-3 0  9997
2 60487  97.3782 285.5516 0004013 129.8896 230.2703 15.39647144107465
FLOCK 4BE-31            
1 60488U 24149W   26202.15675771  .00015638  00000+0  32978-3 0  9991
2 60488  97.3786 287.9764 0004106 136.0348 224.1229 15.45310908107621
FLOCK 4BE-20            
1 60489U 24149X   26201.22176915  .00006959  00000+0  18300-3 0  9994
2 60489  97.3681 283.4099 0005342 139.6915 220.4727 15.38888737107297
FLOCK 4BE-23            
1 60490U 24149Y   26202.19675277  .00010422  00000+0  27665-3 0  9992
2 60490  97.3765 284.7833 0005060 140.5506 219.6109 15.38466373107423
FLOCK 4BE-17            
1 60492U 24149AA  26202.13309795  .00012178  00000+0  30028-3 0  9994
2 60492  97.3758 285.7910 0004661 131.8065 228.3581 15.40688176107480
NUSAT-50 (NANCY ROMAN)  
1 60493U 24149AB  26202.17415841  .00006825  00000+0  23480-3 0  9995
2 60493  97.3774 283.2041 0004851  87.9607 272.2189 15.30383220107327
FLOCK 4BE-22            
1 60494U 24149AC  26202.14860110  .00032273  00000+0  75128-3 0  9998
2 60494  97.3718 286.0538 0005064 138.7121 221.4511 15.42215829107531
FLOCK 4BE-34            
1 60495U 24149AD  26202.16640410  .00012370  00000+0  29134-3 0  9992
2 60495  97.3767 286.9148 0005275 145.4969 214.6621 15.42068261107566
TYCHE                   
1 60496U 24149AE  26202.17064776  .00003059  00000+0  12247-3 0  9990
2 60496  97.3739 279.5277 0003502 151.5175 208.6255 15.25807077107085
FLOCK 4BE-32            
1 60497U 24149AF  26202.04635588  .00014192  00000+0  32131-3 0  9996
2 60497  97.3705 286.3647 0005355 143.0288 217.1330 15.43218981107556
NUSAT-48 (HENRIETTA LE*)
1 60498U 24149AG  26201.77102841  .00005414  00000+0  18711-3 0  9992
2 60498  97.3906 283.1047 0005217 142.6363 217.5242 15.30330391107276
NUSAT-49 (KLARA DAN VO*)
1 60500U 24149AJ  26202.14174665  .00002172  00000+0  77776-4 0  9996
2 60500  97.3766 283.1988 0003003 149.0426 211.0992 15.29837634107327
FLOCK 4BE-11            
1 60501U 24149AK  26202.15299934  .00014502  00000+0  31963-3 0  9992
2 60501  97.3684 286.7343 0005329 142.1541 218.0083 15.44015179107592
YAM-7                   
1 60504U 24149AN  26202.15152081  .00005275  00000+0  17199-3 0  9998
2 60504  97.3768 282.2711 0004237 151.2330 208.9147 15.32232498107256
FLOCK 4BE-24            
1 60505U 24149AP  26202.13579871  .00016029  00000+0  35018-3 0  9996
2 60505  97.3698 286.9890 0005476 152.9608 207.1926 15.44253426107602
LUR-1                   
1 60506U 24149AQ  26202.18012060  .00005114  00000+0  17601-3 0  9995
2 60506  97.3722 280.7691 0004566 163.0358 197.1036 15.30495329107173
TANAGER-1               
1 60507U 24149AR  26201.98216352  .00000223  00000+0  67777-5 0  9990
2 60507  97.2316 296.0820 0001970 137.5704 222.5698 15.43878726108250
EAGLEEYE                
1 60508U 24149AS  26201.79391076  .00107332  00000+0  63331-3 0  9996
2 60508  97.3695 297.1618 0004509 174.2995 185.8323 15.77837477108228
FLOCK 4BE-29            
1 60509U 24149AT  26202.18586905  .00035460  00000+0  73108-3 0  9993
2 60509  97.3794 288.6041 0004124 162.0588 198.0808 15.45808063107665
TRANSPORTER-11 OBJECT AU
1 60510U 24149AU  26202.15597143  .00011329  00000+0  27590-3 0  9990
2 60510  97.3716 286.1678 0004737 150.9951 209.1560 15.41082585107545
FLOCK 4BE-2             
1 60511U 24149AV  26201.98050178  .00056508  00000+0  79713-3 0  9995
2 60511  97.3817 290.3344 0005476 157.8276 202.3216 15.56404659107754
FLOCK 4BE-13            
1 60512U 24149AW  26202.15260922  .00010902  00000+0  25153-3 0  9993
2 60512  97.3708 286.9361 0005456 138.8058 221.3602 15.42721630107609
FLOCK 4BE-27            
1 60513U 24149AX  26202.03330931  .00007014  00000+0  20902-3 0  9996
2 60513  97.3814 283.9121 0004476 163.6845 196.4543 15.34982443107338
FLOCK 4BE-9             
1 60514U 24149AY  26201.97996405  .00013607  00000+0  32377-3 0  9997
2 60514  97.3780 286.6010 0004096 157.0272 203.1159 15.41741990107525
